[{"OBJECT_NAME":"STARLINK-30864","OBJECT_ID":"2023-171P","EPOCH":"2026-03-09T22:00:01.999584","MEAN_MOTION":15.19809403,"ECCENTRICITY":0.00019525,"INCLINATION":43,"RA_OF_ASC_NODE":283.8256,"ARG_OF_PERICENTER":283.3772,"MEAN_ANOMALY":326.7357,"EPHEMERIS_TYPE":0,"CLASSIFICATION_TYPE":"U","NORAD_CAT_ID":58243,"ELEMENT_SET_NO":999,"REV_AT_EPOCH":573,"BSTAR":0.09583065,"MEAN_MOTION_DOT":0.02319339,"MEAN_MOTION_DDOT":0},{"OBJECT_NAME":"SCS-01 G","OBJECT_ID":"2025-100G","EPOCH":"2026-03-09T22:06:35.300160","MEAN_MOTION":15.25626619,"ECCENTRICITY":0.00115239,"INCLINATION":97.3761,"RA_OF_ASC_NODE":145.2582,"ARG_OF_PERICENTER":298.6971,"MEAN_ANOMALY":61.3108,"EPHEMERIS_TYPE":0,"CLASSIFICATION_TYPE":"U","NORAD_CAT_ID":63988,"ELEMENT_SET_NO":999,"REV_AT_EPOCH":4562,"BSTAR":0.00025501168,"MEAN_MOTION_DOT":6.423e-5,"MEAN_MOTION_DDOT":0}]
